{"fetched_at":"2026-07-07T07:58:09.009Z","source":"https://celestrak.org/NORAD/elements/gp.php?GROUP=kuiper&FORMAT=JSON","constellation":"kuiper","records":[{"OBJECT_NAME":"KUIPER-00408","OBJECT_ID":"2026-098F","EPOCH":"2026-07-06T16:01:46.923744","CLASSIFICATION_TYPE":"U","MEAN_MOTION":15.26670391,"ECCENTRICITY":0.0014183,"INCLINATION":51.8799,"RA_OF_ASC_NODE":336.4967,"ARG_OF_PERICENTER":230.7545,"MEAN_ANOMALY":129.2179,"EPHEMERIS_TYPE":0,"NORAD_CAT_ID":68924,"ELEMENT_SET_NO":999,"REV_AT_EPOCH":1030,"BSTAR":0.00041211,"MEAN_MOTION_DOT":0.00010658,"MEAN_MOTION_DDOT":0},{"OBJECT_NAME":"KUIPER-00409","OBJECT_ID":"2026-098G","EPOCH":"2026-07-06T18:00:02.998944","CLASSIFICATION_TYPE":"U","MEAN_MOTION":15.19504157,"ECCENTRICITY":0.000534,"INCLINATION":51.8827,"RA_OF_ASC_NODE":334.5863,"ARG_OF_PERICENTER":251.7782,"MEAN_ANOMALY":203.3533,"EPHEMERIS_TYPE":0,"NORAD_CAT_ID":68925,"ELEMENT_SET_NO":999,"REV_AT_EPOCH":565,"BSTAR":-0.099734,"MEAN_MOTION_DOT":-0.01944004,"MEAN_MOTION_DDOT":0},{"OBJECT_NAME":"KUIPER-00410","OBJECT_ID":"2026-098H","EPOCH":"2026-07-06T15:55:37.640640","CLASSIFICATION_TYPE":"U","MEAN_MOTION":15.26635643,"ECCENTRICITY":0.0013395,"INCLINATION":51.8783,"RA_OF_ASC_NODE":336.458,"ARG_OF_PERICENTER":223.989,"MEAN_ANOMALY":136.0026,"EPHEMERIS_TYPE":0,"NORAD_CAT_ID":68926,"ELEMENT_SET_NO":999,"REV_AT_EPOCH":1030,"BSTAR":0.00035126,"MEAN_MOTION_DOT":0.00009018,"MEAN_MOTION_DDOT":0},{"OBJECT_NAME":"KUIPER-00412","OBJECT_ID":"2026-098J","EPOCH":"2026-07-06T15:00:20.213280","CLASSIFICATION_TYPE":"U","MEAN_MOTION":15.37507211,"ECCENTRICITY":0.0002929,"INCLINATION":51.8789,"RA_OF_ASC_NODE":333.3133,"ARG_OF_PERICENTER":298.7705,"MEAN_ANOMALY":61.2987,"EPHEMERIS_TYPE":0,"NORAD_CAT_ID":68927,"ELEMENT_SET_NO":999,"REV_AT_EPOCH":1034,"BSTAR":0.00065961,"MEAN_MOTION_DOT":0.00024338,"MEAN_MOTION_DDOT":0},{"OBJECT_NAME":"KUIPER-00413","OBJECT_ID":"2026-098K","EPOCH":"2026-07-06T19:32:59.794080","CLASSIFICATION_TYPE":"U","MEAN_MOTION":15.19347357,"ECCENTRICITY":0.0023107,"INCLINATION":51.8803,"RA_OF_ASC_NODE":336.6522,"ARG_OF_PERICENTER":233.1764,"MEAN_ANOMALY":126.7095,"EPHEMERIS_TYPE":0,"NORAD_CAT_ID":68928,"ELEMENT_SET_NO":999,"REV_AT_EPOCH":1031,"BSTAR":-0.015347,"MEAN_MOTION_DOT":-0.00317837,"MEAN_MOTION_DDOT":0},{"OBJECT_NAME":"KUIPER-00414","OBJECT_ID":"2026-098L","EPOCH":"2026-07-06T16:57:53.555040","CLASSIFICATION_TYPE":"U","MEAN_MOTION":14.79926112,"ECCENTRICITY":0.0001212,"INCLINATION":51.8978,"RA_OF_ASC_NODE":344.4445,"ARG_OF_PERICENTER":225.6509,"MEAN_ANOMALY":134.4354,"EPHEMERIS_TYPE":0,"NORAD_CAT_ID":68929,"ELEMENT_SET_NO":999,"REV_AT_EPOCH":1019,"BSTAR":-0.000064556,"MEAN_MOTION_DOT":-0.00000713,"MEAN_MOTION_DDOT":0},{"OBJECT_NAME":"KUIPER-00415","OBJECT_ID":"2026-098M","EPOCH":"2026-07-06T14:41:49.720128","CLASSIFICATION_TYPE":"U","MEAN_MOTION":15.30359221,"ECCENTRICITY":0.0009259,"INCLINATION":51.8803,"RA_OF_ASC_NODE":335.428,"ARG_OF_PERICENTER":212.9801,"MEAN_ANOMALY":147.0606,"EPHEMERIS_TYPE":0,"NORAD_CAT_ID":68930,"ELEMENT_SET_NO":999,"REV_AT_EPOCH":1031,"BSTAR":0.00053996,"MEAN_MOTION_DOT":0.00015774,"MEAN_MOTION_DDOT":0},{"OBJECT_NAME":"KUIPER-00416","OBJECT_ID":"2026-098N","EPOCH":"2026-07-06T10:08:09.462336","CLASSIFICATION_TYPE":"U","MEAN_MOTION":15.37555837,"ECCENTRICITY":0.00005521,"INCLINATION":51.8744,"RA_OF_ASC_NODE":334.1871,"ARG_OF_PERICENTER":283.3896,"MEAN_ANOMALY":76.7029,"EPHEMERIS_TYPE":0,"NORAD_CAT_ID":68931,"ELEMENT_SET_NO":999,"REV_AT_EPOCH":1031,"BSTAR":0.00097221707,"MEAN_MOTION_DOT":0.00036169,"MEAN_MOTION_DDOT":0},{"OBJECT_NAME":"KUIPER-00420","OBJECT_ID":"2026-098P","EPOCH":"2026-07-06T15:52:44.356800","CLASSIFICATION_TYPE":"U","MEAN_MOTION":15.36522746,"ECCENTRICITY":0.0003209,"INCLINATION":51.8775,"RA_OF_ASC_NODE":333.542,"ARG_OF_PERICENTER":264.2916,"MEAN_ANOMALY":95.7705,"EPHEMERIS_TYPE":0,"NORAD_CAT_ID":68932,"ELEMENT_SET_NO":999,"REV_AT_EPOCH":1034,"BSTAR":0.00056753,"MEAN_MOTION_DOT":0.00020212,"MEAN_MOTION_DDOT":0},{"OBJECT_NAME":"KUIPER-00421","OBJECT_ID":"2026-098Q","EPOCH":"2026-07-06T17:09:53.324064","CLASSIFICATION_TYPE":"U","MEAN_MOTION":15.30306362,"ECCENTRICITY":0.0007276,"INCLINATION":51.8786,"RA_OF_ASC_NODE":334.6192,"ARG_OF_PERICENTER":197.9312,"MEAN_ANOMALY":162.1416,"EPHEMERIS_TYPE":0,"NORAD_CAT_ID":68933,"ELEMENT_SET_NO":999,"REV_AT_EPOCH":1033,"BSTAR":0.00042426,"MEAN_MOTION_DOT":0.00012284,"MEAN_MOTION_DDOT":0},{"OBJECT_NAME":"KUIPER-00425","OBJECT_ID":"2026-098R","EPOCH":"2026-07-06T16:08:37.641696","CLASSIFICATION_TYPE":"U","MEAN_MOTION":15.26247677,"ECCENTRICITY":0.0015108,"INCLINATION":51.8794,"RA_OF_ASC_NODE":336.512,"ARG_OF_PERICENTER":221.7982,"MEAN_ANOMALY":138.1847,"EPHEMERIS_TYPE":0,"NORAD_CAT_ID":68934,"ELEMENT_SET_NO":999,"REV_AT_EPOCH":1030,"BSTAR":0.00055475,"MEAN_MOTION_DOT":0.00014296,"MEAN_MOTION_DDOT":0},{"OBJECT_NAME":"KUIPER-00430","OBJECT_ID":"2026-098S","EPOCH":"2026-07-06T18:00:02.998944","CLASSIFICATION_TYPE":"U","MEAN_MOTION":15.15580409,"ECCENTRICITY":0.0019086,"INCLINATION":51.8865,"RA_OF_ASC_NODE":336.4028,"ARG_OF_PERICENTER":223.5466,"MEAN_ANOMALY":109.9663,"EPHEMERIS_TYPE":0,"NORAD_CAT_ID":68935,"ELEMENT_SET_NO":999,"REV_AT_EPOCH":573,"BSTAR":-0.067899,"MEAN_MOTION_DOT":-0.01206186,"MEAN_MOTION_DDOT":0},{"OBJECT_NAME":"KUIPER-00431","OBJECT_ID":"2026-098T","EPOCH":"2026-07-06T18:00:02.998944","CLASSIFICATION_TYPE":"U","MEAN_MOTION":15.00847338,"ECCENTRICITY":0.0014684,"INCLINATION":51.8882,"RA_OF_ASC_NODE":337.5449,"ARG_OF_PERICENTER":211.3626,"MEAN_ANOMALY":241.8023,"EPHEMERIS_TYPE":0,"NORAD_CAT_ID":68936,"ELEMENT_SET_NO":999,"REV_AT_EPOCH":307,"BSTAR":-0.0031976,"MEAN_MOTION_DOT":-0.00041239,"MEAN_MOTION_DDOT":0},{"OBJECT_NAME":"KUIPER-00432","OBJECT_ID":"2026-098U","EPOCH":"2026-07-06T16:00:22.000320","CLASSIFICATION_TYPE":"U","MEAN_MOTION":15.2809653,"ECCENTRICITY":0.0011706,"INCLINATION":51.8782,"RA_OF_ASC_NODE":335.7513,"ARG_OF_PERICENTER":216.3631,"MEAN_ANOMALY":143.6557,"EPHEMERIS_TYPE":0,"NORAD_CAT_ID":68937,"ELEMENT_SET_NO":999,"REV_AT_EPOCH":1031,"BSTAR":0.00071534,"MEAN_MOTION_DOT":0.00019611,"MEAN_MOTION_DDOT":0},{"OBJECT_NAME":"KUIPER-00434","OBJECT_ID":"2026-098V","EPOCH":"2026-07-06T18:00:02.998944","CLASSIFICATION_TYPE":"U","MEAN_MOTION":15.20950287,"ECCENTRICITY":0.0003964,"INCLINATION":51.8808,"RA_OF_ASC_NODE":334.5014,"ARG_OF_PERICENTER":192.1841,"MEAN_ANOMALY":347.3369,"EPHEMERIS_TYPE":0,"NORAD_CAT_ID":68938,"ELEMENT_SET_NO":999,"REV_AT_EPOCH":497,"BSTAR":-0.053668,"MEAN_MOTION_DOT":-0.01114119,"MEAN_MOTION_DDOT":0},{"OBJECT_NAME":"KUIPER-00436","OBJECT_ID":"2026-098W","EPOCH":"2026-07-06T18:00:02.998944","CLASSIFICATION_TYPE":"U","MEAN_MOTION":15.22020553,"ECCENTRICITY":0.0008135,"INCLINATION":51.8786,"RA_OF_ASC_NODE":334.9695,"ARG_OF_PERICENTER":228.4477,"MEAN_ANOMALY":72.5776,"EPHEMERIS_TYPE":0,"NORAD_CAT_ID":68939,"ELEMENT_SET_NO":999,"REV_AT_EPOCH":376,"BSTAR":-0.046688,"MEAN_MOTION_DOT":-0.0099746,"MEAN_MOTION_DDOT":0}]}
