KUIPER-00408            
1 68924U 26098F   26187.66790421  .00010658  00000+0  41211-3 0  9994
2 68924  51.8799 336.4967 0014183 230.7545 129.2179 15.26670391 10306
KUIPER-00409            
1 68925U 26098G   26187.75003471 -.01944004  00000+0 -99734-1 0  9992
2 68925  51.8827 334.5863 0005340 251.7782 203.3533 15.19504157  5652
KUIPER-00410            
1 68926U 26098H   26187.66363010  .00009018  00000+0  35126-3 0  9992
2 68926  51.8783 336.4580 0013395 223.9890 136.0026 15.26635643 10301
KUIPER-00412            
1 68927U 26098J   26187.62523395  .00024338  00000+0  65961-3 0  9995
2 68927  51.8789 333.3133 0002929 298.7705  61.2987 15.37507211 10344
KUIPER-00413            
1 68928U 26098K   26187.81458095 -.00317837  00000+0 -15347-1 0  9993
2 68928  51.8803 336.6522 0023107 233.1764 126.7095 15.19347357 10316
KUIPER-00414            
1 68929U 26098L   26187.70686985 -.00000713  00000+0 -64556-4 0  9994
2 68929  51.8978 344.4445 0001212 225.6509 134.4354 14.79926112 10194
KUIPER-00415            
1 68930U 26098M   26187.61238102  .00015774  00000+0  53996-3 0  9996
2 68930  51.8803 335.4280 0009259 212.9801 147.0606 15.30359221 10316
KUIPER-00416            
1 68931U 26098N   26187.42233174  .00036169  00000+0  97222-3 0  9991
2 68931  51.8744 334.1871 0000552 283.3896  76.7029 15.37555837 10311
KUIPER-00420            
1 68932U 26098P   26187.66162450  .00020212  00000+0  56753-3 0  9992
2 68932  51.8775 333.5420 0003209 264.2916  95.7705 15.36522746 10349
KUIPER-00421            
1 68933U 26098Q   26187.71520051  .00012284  00000+0  42426-3 0  9996
2 68933  51.8786 334.6192 0007276 197.9312 162.1416 15.30306362 10335
KUIPER-00425            
1 68934U 26098R   26187.67265789  .00014296  00000+0  55475-3 0  9999
2 68934  51.8794 336.5120 0015108 221.7982 138.1847 15.26247677 10305
KUIPER-00430            
1 68935U 26098S   26187.75003471 -.01206186  00000+0 -67899-1 0  9992
2 68935  51.8865 336.4028 0019086 223.5466 109.9663 15.15580409  5731
KUIPER-00431            
1 68936U 26098T   26187.75003471 -.00041239  00000+0 -31976-2 0  9996
2 68936  51.8882 337.5449 0014684 211.3626 241.8023 15.00847338  3074
KUIPER-00432            
1 68937U 26098U   26187.66692130  .00019611  00000+0  71534-3 0  9995
2 68937  51.8782 335.7513 0011706 216.3631 143.6557 15.28096530 10315
KUIPER-00434            
1 68938U 26098V   26187.75003471 -.01114119  00000+0 -53668-1 0  9998
2 68938  51.8808 334.5014 0003964 192.1841 347.3369 15.20950287  4978
KUIPER-00436            
1 68939U 26098W   26187.75003471 -.00997460  00000+0 -46688-1 0  9990
2 68939  51.8786 334.9695 0008135 228.4477  72.5776 15.22020553  3767
